{
  "type": "FeatureCollection",
  "features": [
    {
      "type": "Feature",
      "properties": {
        "norad_id": 28890,
        "name": "BEIJING 1",
        "group": "dmc",
        "lat": -74.59346519665837,
        "lon": -84.35676070188177,
        "alt_km": 699.6862955332554,
        "timestamp": "2025-12-25T22:42:16.663160+00:00",
        "meta_object_name": "BEIJING 1",
        "meta_object_id": "2005-043A",
        "meta_epoch": "2025-12-25T18:15:11.310912",
        "meta_mean_motion": 14.63378928,
        "meta_eccentricity": 0.0015846,
        "meta_inclination": 98.2665,
        "meta_ra_of_asc_node": 127.2992,
        "meta_arg_of_pericenter": 103.051,
        "meta_mean_anomaly": 257.2461,
        "meta_ephemeris_type": 0,
        "meta_classification_type": "U",
        "meta_norad_cat_id": 28890,
        "meta_element_set_no": 999,
        "meta_rev_at_epoch": 7528,
        "meta_bstar": 0.00015705,
        "meta_mean_motion_dot": 7.64e-06,
        "meta_mean_motion_ddot": 0,
        "tle_line1": "1 28890U 05043A   25359.76054758  .00000764  00000+0  15705-3 0  9992",
        "tle_line2": "2 28890  98.2665 127.2992 0015846 103.0510 257.2461 14.63378928 75281"
      },
      "geometry": {
        "type": "Point",
        "coordinates": [
          -84.35676070188177,
          -74.59346519665837
        ]
      }
    },
    {
      "type": "Feature",
      "properties": {
        "norad_id": 33320,
        "name": "HUANJING 1A (HJ-1A)",
        "group": "dmc",
        "lat": 24.531061728013853,
        "lon": 171.2122982965961,
        "alt_km": 630.7007447912674,
        "timestamp": "2025-12-25T22:42:16.663184+00:00",
        "meta_object_name": "HUANJING 1A (HJ-1A)",
        "meta_object_id": "2008-041A",
        "meta_epoch": "2025-12-25T18:46:12.075744",
        "meta_mean_motion": 14.83432278,
        "meta_eccentricity": 0.0019138,
        "meta_inclination": 97.6551,
        "meta_ra_of_asc_node": 347.536,
        "meta_arg_of_pericenter": 352.6693,
        "meta_mean_anomaly": 7.4239,
        "meta_ephemeris_type": 0,
        "meta_classification_type": "U",
        "meta_norad_cat_id": 33320,
        "meta_element_set_no": 999,
        "meta_rev_at_epoch": 93269,
        "meta_bstar": 0.0001658,
        "meta_mean_motion_dot": 1.314e-05,
        "meta_mean_motion_ddot": 0,
        "tle_line1": "1 33320U 08041A   25359.78208421  .00001314  00000+0  16580-3 0  9991",
        "tle_line2": "2 33320  97.6551 347.5360 0019138 352.6693   7.4239 14.83432278932696"
      },
      "geometry": {
        "type": "Point",
        "coordinates": [
          171.2122982965961,
          24.531061728013853
        ]
      }
    },
    {
      "type": "Feature",
      "properties": {
        "norad_id": 33321,
        "name": "HUANJING 1B (HJ-1B)",
        "group": "dmc",
        "lat": -11.533613509993707,
        "lon": -7.074782982238012,
        "alt_km": 606.1627199394561,
        "timestamp": "2025-12-25T22:42:16.663199+00:00",
        "meta_object_name": "HUANJING 1B (HJ-1B)",
        "meta_object_id": "2008-041B",
        "meta_epoch": "2025-12-25T17:53:53.588832",
        "meta_mean_motion": 14.828555,
        "meta_eccentricity": 0.0037683,
        "meta_inclination": 97.6409,
        "meta_ra_of_asc_node": 351.164,
        "meta_arg_of_pericenter": 34.5635,
        "meta_mean_anomaly": 325.8018,
        "meta_ephemeris_type": 0,
        "meta_classification_type": "U",
        "meta_norad_cat_id": 33321,
        "meta_element_set_no": 999,
        "meta_rev_at_epoch": 93270,
        "meta_bstar": 0.00020844,
        "meta_mean_motion_dot": 1.657e-05,
        "meta_mean_motion_ddot": 0,
        "tle_line1": "1 33321U 08041B   25359.74575913  .00001657  00000+0  20844-3 0  9999",
        "tle_line2": "2 33321  97.6409 351.1640 0037683  34.5635 325.8018 14.82855500932708"
      },
      "geometry": {
        "type": "Point",
        "coordinates": [
          -7.074782982238012,
          -11.533613509993707
        ]
      }
    },
    {
      "type": "Feature",
      "properties": {
        "norad_id": 33446,
        "name": "YAOGAN-4",
        "group": "dmc",
        "lat": -72.38350184206702,
        "lon": 83.91492564438212,
        "alt_km": 619.6555083276289,
        "timestamp": "2025-12-25T22:42:16.663211+00:00",
        "meta_object_name": "YAOGAN-4",
        "meta_object_id": "2008-061A",
        "meta_epoch": "2025-12-25T18:19:17.173344",
        "meta_mean_motion": 14.8271976,
        "meta_eccentricity": 0.0012966,
        "meta_inclination": 97.9198,
        "meta_ra_of_asc_node": 289.7359,
        "meta_arg_of_pericenter": 277.0684,
        "meta_mean_anomaly": 82.9055,
        "meta_ephemeris_type": 0,
        "meta_classification_type": "U",
        "meta_norad_cat_id": 33446,
        "meta_element_set_no": 999,
        "meta_rev_at_epoch": 91996,
        "meta_bstar": 0.00018511,
        "meta_mean_motion_dot": 1.442e-05,
        "meta_mean_motion_ddot": 0,
        "tle_line1": "1 33446U 08061A   25359.76339321  .00001442  00000+0  18511-3 0  9992",
        "tle_line2": "2 33446  97.9198 289.7359 0012966 277.0684  82.9055 14.82719760919964"
      },
      "geometry": {
        "type": "Point",
        "coordinates": [
          83.91492564438212,
          -72.38350184206702
        ]
      }
    },
    {
      "type": "Feature",
      "properties": {
        "norad_id": 35681,
        "name": "DEIMOS-1",
        "group": "dmc",
        "lat": 16.134951734241124,
        "lon": 157.68742240735187,
        "alt_km": 644.6834910979696,
        "timestamp": "2025-12-25T22:42:16.663223+00:00",
        "meta_object_name": "DEIMOS-1",
        "meta_object_id": "2009-041A",
        "meta_epoch": "2025-12-25T17:44:47.772384",
        "meta_mean_motion": 14.74970704,
        "meta_eccentricity": 0.0002446,
        "meta_inclination": 97.7157,
        "meta_ra_of_asc_node": 159.7383,
        "meta_arg_of_pericenter": 59.9451,
        "meta_mean_anomaly": 300.2001,
        "meta_ephemeris_type": 0,
        "meta_classification_type": "U",
        "meta_norad_cat_id": 35681,
        "meta_element_set_no": 999,
        "meta_rev_at_epoch": 88131,
        "meta_bstar": 8.1888e-05,
        "meta_mean_motion_dot": 5.03e-06,
        "meta_mean_motion_ddot": 0,
        "tle_line1": "1 35681U 09041A   25359.73944181  .00000503  00000+0  81888-4 0  9992",
        "tle_line2": "2 35681  97.7157 159.7383 0002446  59.9451 300.2001 14.74970704881316"
      },
      "geometry": {
        "type": "Point",
        "coordinates": [
          157.68742240735187,
          16.134951734241124
        ]
      }
    },
    {
      "type": "Feature",
      "properties": {
        "norad_id": 35683,
        "name": "UK-DMC 2",
        "group": "dmc",
        "lat": 62.48149939228727,
        "lon": 119.10597311172508,
        "alt_km": 636.0231123290641,
        "timestamp": "2025-12-25T22:42:16.663234+00:00",
        "meta_object_name": "UK-DMC 2",
        "meta_object_id": "2009-041C",
        "meta_epoch": "2025-12-25T17:32:08.054592",
        "meta_mean_motion": 14.75648389,
        "meta_eccentricity": 0.0001582,
        "meta_inclination": 97.8573,
        "meta_ra_of_asc_node": 134.2677,
        "meta_arg_of_pericenter": 91.4923,
        "meta_mean_anomaly": 268.6468,
        "meta_ephemeris_type": 0,
        "meta_classification_type": "U",
        "meta_norad_cat_id": 35683,
        "meta_element_set_no": 999,
        "meta_rev_at_epoch": 88098,
        "meta_bstar": 0.00016689,
        "meta_mean_motion_dot": 1.09e-05,
        "meta_mean_motion_ddot": 0,
        "tle_line1": "1 35683U 09041C   25359.73064878  .00001090  00000+0  16689-3 0  9998",
        "tle_line2": "2 35683  97.8573 134.2677 0001582  91.4923 268.6468 14.75648389880988"
      },
      "geometry": {
        "type": "Point",
        "coordinates": [
          119.10597311172508,
          62.48149939228727
        ]
      }
    },
    {
      "type": "Feature",
      "properties": {
        "norad_id": 40715,
        "name": "DMC3-FM1",
        "group": "dmc",
        "lat": -38.02736558944293,
        "lon": 40.60880424252361,
        "alt_km": 616.6707535767464,
        "timestamp": "2025-12-25T22:42:16.663258+00:00",
        "meta_object_name": "DMC3-FM1",
        "meta_object_id": "2015-032A",
        "meta_epoch": "2025-12-25T18:29:27.719808",
        "meta_mean_motion": 14.85460526,
        "meta_eccentricity": 0.000408,
        "meta_inclination": 97.6679,
        "meta_ra_of_asc_node": 226.4878,
        "meta_arg_of_pericenter": 266.5713,
        "meta_mean_anomaly": 93.5036,
        "meta_ephemeris_type": 0,
        "meta_classification_type": "U",
        "meta_norad_cat_id": 40715,
        "meta_element_set_no": 999,
        "meta_rev_at_epoch": 56416,
        "meta_bstar": 6.2585e-05,
        "meta_mean_motion_dot": 4.88e-06,
        "meta_mean_motion_ddot": 0,
        "tle_line1": "1 40715U 15032A   25359.77045972  .00000488  00000+0  62585-4 0  9992",
        "tle_line2": "2 40715  97.6679 226.4878 0004080 266.5713  93.5036 14.85460526564161"
      },
      "geometry": {
        "type": "Point",
        "coordinates": [
          40.60880424252361,
          -38.02736558944293
        ]
      }
    },
    {
      "type": "Feature",
      "properties": {
        "norad_id": 40716,
        "name": "DMC3-FM2",
        "group": "dmc",
        "lat": 78.7608203815244,
        "lon": 90.83608383529129,
        "alt_km": 607.9935340142729,
        "timestamp": "2025-12-25T22:42:16.663271+00:00",
        "meta_object_name": "DMC3-FM2",
        "meta_object_id": "2015-032B",
        "meta_epoch": "2025-12-25T19:01:49.984032",
        "meta_mean_motion": 14.85463925,
        "meta_eccentricity": 0.0004591,
        "meta_inclination": 97.6736,
        "meta_ra_of_asc_node": 227.9626,
        "meta_arg_of_pericenter": 272.832,
        "meta_mean_anomaly": 87.237,
        "meta_ephemeris_type": 0,
        "meta_classification_type": "U",
        "meta_norad_cat_id": 40716,
        "meta_element_set_no": 999,
        "meta_rev_at_epoch": 56416,
        "meta_bstar": 0.00013782,
        "meta_mean_motion_dot": 1.137e-05,
        "meta_mean_motion_ddot": 0,
        "tle_line1": "1 40716U 15032B   25359.79293963  .00001137  00000+0  13782-3 0  9996",
        "tle_line2": "2 40716  97.6736 227.9626 0004591 272.8320  87.2370 14.85463925564161"
      },
      "geometry": {
        "type": "Point",
        "coordinates": [
          90.83608383529129,
          78.7608203815244
        ]
      }
    },
    {
      "type": "Feature",
      "properties": {
        "norad_id": 40717,
        "name": "DMC3-FM3",
        "group": "dmc",
        "lat": -17.86978218052296,
        "lon": -127.75459819372487,
        "alt_km": 616.2060323077385,
        "timestamp": "2025-12-25T22:42:16.663281+00:00",
        "meta_object_name": "DMC3-FM3",
        "meta_object_id": "2015-032C",
        "meta_epoch": "2025-12-25T17:56:08.263968",
        "meta_mean_motion": 14.85450944,
        "meta_eccentricity": 0.000386,
        "meta_inclination": 97.6792,
        "meta_ra_of_asc_node": 229.5605,
        "meta_arg_of_pericenter": 274.4284,
        "meta_mean_anomaly": 85.6491,
        "meta_ephemeris_type": 0,
        "meta_classification_type": "U",
        "meta_norad_cat_id": 40717,
        "meta_element_set_no": 999,
        "meta_rev_at_epoch": 56416,
        "meta_bstar": 0.00015637,
        "meta_mean_motion_dot": 1.297e-05,
        "meta_mean_motion_ddot": 0,
        "tle_line1": "1 40717U 15032C   25359.74731787  .00001297  00000+0  15637-3 0  9991",
        "tle_line2": "2 40717  97.6792 229.5605 0003860 274.4284  85.6491 14.85450944564167"
      },
      "geometry": {
        "type": "Point",
        "coordinates": [
          -127.75459819372487,
          -17.86978218052296
        ]
      }
    }
  ]
}